GLOBALSTAR M094         
1 39074U 13005C   25295.02956669 -.00000051  00000+0  29391-3 0  9991
2 39074  51.9935 155.9195 0000885  97.1892 262.9075 12.62264728588393
GLOBALSTAR M096         
1 39075U 13005D   25295.12194025 -.00000067  00000+0  20773-3 0  9995
2 39075  52.0065 204.2515 0000789  87.0512 273.0445 12.62267901587326
GLOBALSTAR M078         
1 39076U 13005E   25295.17521096 -.00000099  00000+0  25039-4 0  9999
2 39076  51.9868 288.4305 0001266  92.5568 267.5444 12.62261399585959
GLOBALSTAR M095         
1 39077U 13005F   25295.12203872 -.00000101  00000+0  13562-4 0  9996
2 39077  52.0078 285.8572 0000724 108.2904 251.8042 12.62261037585802
GLOBALSTAR M087         
1 52888U 22064A   25295.05592664 -.00000111  00000+0 -42403-4 0  9996
2 52888  52.0000  67.4280 0000894 117.4758 242.6200 12.62289477161069
